COMMENT,ORIGINATOR,NORAD_CAT_ID,OBJECT_NAME,OBJECT_TYPE,CLASSIFICATION_TYPE,INTLDES,EPOCH,EPOCH_MICROSECONDS,MEAN_MOTION,ECCENTRICITY,INCLINATION,RA_OF_ASC_NODE,ARG_OF_PERICENTER,MEAN_ANOMALY,EPHEMERIS_TYPE,ELEMENT_SET_NO,REV_AT_EPOCH,BSTAR,MEAN_MOTION_DOT,MEAN_MOTION_DDOT,FILE,TLE_LINE0,TLE_LINE1,TLE_LINE2,OBJECT_ID,OBJECT_NUMBER,SEMIMAJOR_AXIS,PERIOD,APOGEE,PERIGEE,DECAYED
GENERATED VIA SPACETRACK.ORG API,18 SPCS,43162,SBIRS GEO 3 (USA 282),PAYLOAD,U,18009A,2024-03-07 13:09:22,218048,1.00271885,0.0001764,2.4857,331.9602,20.1754,211.5314,0,999,2250,0,0.00000123,0,4212721,0 SBIRS GEO 3 (USA 282),1 43162U 18009A   24067.54817382  .00000123  00000-0  00000-0 0  9997,2 43162   2.4857 331.9602 0001764  20.1754 211.5314  1.00271885 22503,2018-009A,43162,42164.704,1436.095,35794.007,35779.131,0
GENERATED VIA SPACETRACK.ORG API,18 SPCS,43162,SBIRS GEO 3 (USA 282),PAYLOAD,U,18009A,2024-03-07 13:09:22,218048,1.00271885,0.0001764,2.4857,331.9602,20.1754,211.5314,0,999,2249,0,0.00000123,0,4212792,0 SBIRS GEO 3 (USA 282),1 43162U 18009A   24067.54817382  .00000123  00000-0  00000+0 0  9996,2 43162   2.4857 331.9602 0001764  20.1754 211.5314  1.00271885 22491,2018-009A,43162,42164.704,1436.095,35794.007,35779.131,0
GENERATED VIA SPACETRACK.ORG API,18 SPCS,44479,AMOS 17,PAYLOAD,U,19050A,2024-03-07 13:00:42,927264,1.00270774,0.0002114,0.0272,101.7142,271.0924,5.0807,0,999,1684,0,0.00000102,0,4212721,0 AMOS 17,1 44479U 19050A   24067.54216351  .00000102  00000-0  00000-0 0  9992,2 44479   0.0272 101.7142 0002114 271.0924   5.0807  1.00270774 16847,2019-050A,44479,42165.015,1436.111,35795.794,35777.967,0
GENERATED VIA SPACETRACK.ORG API,18 SPCS,29055,ASTRA 1KR,PAYLOAD,U,06012A,2024-03-07 13:00:42,927264,1.00270429,0.0002816,0.0716,281.9154,12.4803,85.6801,0,999,3737,0,0.00000113,0,4212721,0 ASTRA 1KR,1 29055U 06012A   24067.54216351  .00000113  00000-0  00000-0 0  9991,2 29055   0.0716 281.9154 0002816  12.4803  85.6801  1.00270429 37375,2006-012A,29055,42165.112,1436.116,35798.851,35775.103,0
GENERATED VIA SPACETRACK.ORG API,18 SPCS,8832,TITAN 3C TRANSTAGE DEB,DEBRIS,U,76023J,2024-03-07 12:30:00,792000,0.9825851,0.0137502,20.1102,53.2269,73.5558,291.3244,0,999,10943,0,0.00000018,0,4212721,0 TITAN 3C TRANSTAGE DEB,1 08832U 76023J   24067.52084250  .00000018  00000-0  00000-0 0  9993,2 08832  20.1102  53.2269 0137502  73.5558 291.3244  0.98258510109437,1976-023J,8832,42738.741,1465.522,36948.272,35772.940,0
GENERATED VIA SPACETRACK.ORG API,18 SPCS,41384,IRNSS 1F,PAYLOAD,U,16015A,2024-03-07 12:21:14,481216,1.00277623,0.002028,3.333,121.7194,190.9532,70.8809,0,999,2932,0,0.00000152,0,4212721,0 IRNSS 1F,1 41384U 16015A   24067.51475094  .00000152  00000-0  00000-0 0  9995,2 41384   3.3330 121.7194 0020280 190.9532  70.8809  1.00277623 29326,2016-015A,41384,42163.095,1436.013,35870.467,35699.454,0
GENERATED VIA SPACETRACK.ORG API,18 SPCS,22787,UFO 2 (USA 95),PAYLOAD,U,93056A,2024-03-07 12:19:59,291616,1.00270904,0.000422,11.6281,7.886,356.756,14.6972,0,999,11021,0,0.00000125,0,4212721,0 UFO 2 (USA 95),1 22787U 93056A   24067.51388069  .00000125  00000-0  00000-0 0  9996,2 22787  11.6281   7.8860 0004220 356.7560  14.6972  1.00270904110213,1993-056A,22787,42164.979,1436.110,35804.638,35769.050,0
GENERATED VIA SPACETRACK.ORG API,18 SPCS,38699,TITAN 3C TRANSTAGE DEB,DEBRIS,U,68081Z,2024-03-07 11:14:35,680992,1.00848019,0.0099626,1.3577,339.1791,344.3032,170.6932,0,999,4348,0,-0.00000011,0,4212721,0 TITAN 3C TRANSTAGE DEB,1 38699U 68081Z   24067.46846853 -.00000011  00000-0  00000-0 0  9994,2 38699   1.3577 339.1791 0099626 344.3032 170.6932  1.00848019 43482,1968-081Z,38699,42003.962,1427.891,36044.296,35207.359,0
GENERATED VIA SPACETRACK.ORG API,18 SPCS,38699,TITAN 3C TRANSTAGE DEB,DEBRIS,U,68081Z,2024-03-07 11:14:35,680992,1.00848019,0.0099626,1.3577,339.1791,344.3032,170.6932,0,999,5174,0,-0.00000011,0,4213350,0 TITAN 3C TRANSTAGE DEB,1 38699U 68081Z   24067.46846853 -.00000011  00000-0  00000+0 0  9993,2 38699   1.3577 339.1791 0099626 344.3032 170.6932  1.00848019 51740,1968-081Z,38699,42003.962,1427.891,36044.296,35207.359,0
GENERATED VIA SPACETRACK.ORG API,18 SPCS,23712,USA 115,PAYLOAD,U,95060A,2024-03-07 11:11:42,618336,1.00269636,0.0003067,13.7637,9.7493,323.9287,239.909,0,999,2454,0,-0.00000018,0,4212721,0 USA 115,1 23712U 95060A   24067.46646549 -.00000018  00000-0  00000-0 0  9998,2 23712  13.7637   9.7493 0003067 323.9287 239.9090  1.00269636 24546,1995-060A,23712,42165.334,1436.128,35800.132,35774.267,0
GENERATED VIA SPACETRACK.ORG API,18 SPCS,41469,IRNSS 1G,PAYLOAD,U,16027A,2024-03-07 11:05:56,887008,1.00268256,0.0005136,3.214,123.0211,290.7956,47.8058,0,999,2883,0,-0.00000342,0,4212721,0 IRNSS 1G,1 41469U 16027A   24067.46246397 -.00000342  00000-0  00000-0 0  9990,2 41469   3.2140 123.0211 0005136 290.7956  47.8058  1.00268256 28832,2016-027A,41469,42165.721,1436.147,35809.243,35765.930,0
GENERATED VIA SPACETRACK.ORG API,18 SPCS,42915,TDRS 13,PAYLOAD,U,17047A,2024-03-07 10:25:13,292832,1.00271283,0.0014204,3.7267,342.5119,106.4593,221.4413,0,999,2400,0,-0.00000103,0,4212721,0 TDRS 13,1 42915U 17047A   24067.43418163 -.00000103  00000-0  00000-0 0  9994,2 42915   3.7267 342.5119 0014204 106.4593 221.4413  1.00271283 24009,2017-047A,42915,42164.873,1436.104,35846.629,35726.847,0
GENERATED VIA SPACETRACK.ORG API,18 SPCS,22988,USA 99,PAYLOAD,U,94009A,2024-03-07 10:02:54,954240,1.00272039,0.0002935,16.3508,36.5114,310.9552,238.9117,0,999,2462,0,-0.00000197,0,4212721,0 USA 99,1 22988U 94009A   24067.41869160 -.00000197  00000-0  00000-0 0  9993,2 22988  16.3508  36.5114 0002935 310.9552 238.9117  1.00272039 24627,1994-009A,22988,42164.661,1436.093,35798.901,35774.150,0
GENERATED VIA SPACETRACK.ORG API,18 SPCS,22988,USA 99,PAYLOAD,U,94009A,2024-03-07 10:02:54,954240,1.00272039,0.0002935,16.3508,36.5114,310.9552,238.9117,0,999,2330,0,-0.00000197,0,4212735,0 USA 99,1 22988U 94009A   24067.41869160 -.00000197  00000-0  00000+0 0  9992,2 22988  16.3508  36.5114 0002935 310.9552 238.9117  1.00272039 23301,1994-009A,22988,42164.661,1436.093,35798.901,35774.150,0
GENERATED VIA SPACETRACK.ORG API,18 SPCS,38697,TITAN 3C TRANSTAGE DEB *,DEBRIS,U,68081X,2024-03-07 09:45:46,611072,1.01479129,0.0419993,3.7618,34.403,2.182,358.2254,0,999,6641,0,-0.00000331,0,4214583,0 TITAN 3C TRANSTAGE DEB *,1 38697U 68081X   24067.40678948 -.00000331  00000-0  00000+0 0  9998,2 38697   3.7618  34.4030 0419993   2.1820 358.2254  1.01479129 66412,1968-081X,38697,41829.630,1419.011,37208.310,33694.680,0
GENERATED VIA SPACETRACK.ORG API,18 SPCS,38697,TITAN 3C TRANSTAGE DEB *,DEBRIS,U,68081X,2024-03-07 09:45:46,611072,1.01479129,0.0419993,3.7618,34.403,2.182,358.2254,0,999,6642,0,-0.00000332,0,4214683,0 TITAN 3C TRANSTAGE DEB *,1 38697U 68081X   24067.40678948 -.00000332  00000-0  00000-0 0  9990,2 38697   3.7618  34.4030 0419993   2.1820 358.2254  1.01479129 66423,1968-081X,38697,41829.630,1419.011,37208.310,33694.680,0
GENERATED VIA SPACETRACK.ORG API,18 SPCS,43453,TITAN 3C TRANSTAGE DEB,DEBRIS,U,69013L,2024-03-07 09:34:13,19520,1.07401899,0.0687451,1.7373,232.7437,213.094,141.5514,0,999,2310,0,-0.00000149,0,4214216,0 TITAN 3C TRANSTAGE DEB,1 43453U 69013L   24067.39876180 -.00000149  00000-0  00000+0 0  9993,2 43453   1.7373 232.7437 0687451 213.0940 141.5514  1.07401899 23106,1969-013L,43453,40277.317,1340.758,36668.050,31130.314,0
GENERATED VIA SPACETRACK.ORG API,18 SPCS,43453,TITAN 3C TRANSTAGE DEB,DEBRIS,U,69013L,2024-03-07 09:34:13,19520,1.07401899,0.0687451,1.7373,232.7437,213.094,141.5514,0,999,2310,0,-0.00000149,0,4214683,0 TITAN 3C TRANSTAGE DEB,1 43453U 69013L   24067.39876180 -.00000149  00000-0  00000-0 0  9994,2 43453   1.7373 232.7437 0687451 213.0940 141.5514  1.07401899 23106,1969-013L,43453,40277.317,1340.758,36668.050,31130.314,0
GENERATED VIA SPACETRACK.ORG API,18 SPCS,33436,ASTRA 1M,PAYLOAD,U,08057A,2024-03-07 07:07:58,772928,1.0027101,0.0001581,0.019,98.3391,311.1335,242.1857,0,999,3739,0,0.00000114,0,4212721,0 ASTRA 1M,1 33436U 08057A   24067.29720802  .00000114  00000-0  00000-0 0  9994,2 33436   0.0190  98.3391 0001581 311.1335 242.1857  1.00271010 37399,2008-057A,33436,42164.949,1436.108,35793.481,35780.148,0
GENERATED VIA SPACETRACK.ORG API,18 SPCS,43454,TITAN 3C TRANSTAGE DEB,DEBRIS,U,69013M,2024-03-07 06:57:57,353760,1.02843798,0.0561192,1.4646,246.704,212.5625,142.8547,0,999,2207,0,-0.00000026,0,4212721,0 TITAN 3C TRANSTAGE DEB,1 43454U 69013M   24067.29024715 -.00000026  00000-0  00000-0 0  9997,2 43454   1.4646 246.7040 0561192 212.5625 142.8547  1.02843798 22077,1969-013M,43454,41458.772,1400.182,37407.270,32754.004,0
GENERATED VIA SPACETRACK.ORG API,18 SPCS,43454,TITAN 3C TRANSTAGE DEB,DEBRIS,U,69013M,2024-03-07 06:57:57,353760,1.02843798,0.0561192,1.4646,246.704,212.5625,142.8547,0,999,2207,0,-0.00000026,0,4212983,0 TITAN 3C TRANSTAGE DEB,1 43454U 69013M   24067.29024715 -.00000026  00000-0  00000+0 0  9996,2 43454   1.4646 246.7040 0561192 212.5625 142.8547  1.02843798 22077,1969-013M,43454,41458.772,1400.182,37407.270,32754.004,0
GENERATED VIA SPACETRACK.ORG API,18 SPCS,44307,YAMAL 601,PAYLOAD,U,19031A,2024-03-07 05:33:29,632608,1.00271495,0.0002331,0.0142,141.441,213.0528,303.2862,0,999,1757,0,0.00000114,0,4212721,0 YAMAL 601,1 44307U 19031A   24067.23159297  .00000114  00000-0  00000-0 0  9995,2 44307   0.0142 141.4410 0002331 213.0528 303.2862  1.00271495 17575,2019-031A,44307,42164.813,1436.101,35796.507,35776.850,0
GENERATED VIA SPACETRACK.ORG API,18 SPCS,25967,UFO 10 (USA 146),PAYLOAD,U,99063A,2024-03-07 05:12:49,38336,1.00275532,0.000361,9.4016,31.0727,275.0059,274.6054,0,999,8900,0,-0.00000188,0,4212721,0 UFO 10 (USA 146),1 25967U 99063A   24067.21723424 -.00000188  00000-0  00000-0 0  9998,2 25967   9.4016  31.0727 0003610 275.0059 274.6054  1.00275532 89009,1999-063A,25967,42163.682,1436.043,35800.768,35770.325,0
